NORAD_CAT_ID,OBJECT_NAME,OBJECT_TYPE,EPOCH,MEAN_MOTION,ECCENTRICITY,INCLINATION,RA_OF_ASC_NODE,ARG_OF_PERICENTER,MEAN_ANOMALY,BSTAR,MEAN_MOTION_DOT,MEAN_MOTION_DDOT,TLE_LINE0,TLE_LINE1,TLE_LINE2,SEMIMAJOR_AXIS,PERIOD,APOGEE,PERIGEE,DECAYED
53542.0,STARLINK-4489,PAYLOAD,2023-10-25 11:23:09,15.08842038,0.0001757,53.2191,352.7118,96.5534,263.5658,0.00039391,5.987e-05,0.0,0 STARLINK-4489,1 53542U 22101R   23298.47441449  .00005987  00000-0  39391-3 0  9993,2 53542  53.2191 352.7118 0001757  96.5534 263.5658 15.08842038 65534,6917.874,95.437,540.955,538.524,0.0
53542.0,STARLINK-4489,PAYLOAD,2023-10-25 20:55:27,15.08846986,0.0001678,53.2183,350.9254,90.4576,269.6609,0.000125,1.702e-05,0.0,0 STARLINK-4489,1 53542U 22101R   23298.87185057  .00001702  00000-0  12500-3 0  9991,2 53542  53.2183 350.9254 0001678  90.4576 269.6609 15.08846986 66289,6917.859,95.437,540.885,538.563,0.0
53542.0,STARLINK-4489,PAYLOAD,2023-10-26 09:38:33,15.08846009,0.0001824,53.2193,348.5483,96.7289,263.3911,4.3559e-05,4.05e-06,0.0,0 STARLINK-4489,1 53542U 22101R   23299.40177134  .00000405  00000-0  43559-4 0  9996,2 53542  53.2193 348.5483 0001824  96.7289 263.3911 15.08846009 66362,6917.862,95.437,540.989,538.465,0.0
53542.0,STARLINK-4489,PAYLOAD,2023-10-26 20:46:14,15.0884783,0.0001841,53.2193,346.467,88.8904,271.2299,0.00012533,1.707e-05,0.0,0 STARLINK-4489,1 53542U 22101R   23299.86544941  .00001707  00000-0  12533-3 0  9993,2 53542  53.2193 346.4670 0001841  88.8904 271.2299 15.08847830 66430,6917.856,95.437,540.995,538.448,0.0
53542.0,STARLINK-4489,PAYLOAD,2023-10-27 12:40:05,15.08859353,0.0001714,53.2179,343.492,95.5469,264.5718,0.00023634,3.477e-05,0.0,0 STARLINK-4489,1 53542U 22101R   23300.52783967  .00003477  00000-0  23634-3 0  9992,2 53542  53.2179 343.4920 0001714  95.5469 264.5718 15.08859353 65847,6917.821,95.436,540.872,538.501,0.0
53542.0,STARLINK-4489,PAYLOAD,2023-10-27 20:37:02,15.08838864,0.0002069,53.2188,342.0071,76.8814,283.2409,-2.1272e-05,-6.27e-06,0.0,0 STARLINK-4489,1 53542U 22101R   23300.85905159 -.00000627  00000-0 -21272-4 0  9990,2 53542  53.2188 342.0071 0002069  76.8814 283.2409 15.08838864 65893,6917.884,95.438,541.18,538.318,0.0
53542.0,STARLINK-4489,PAYLOAD,2023-10-28 14:06:16,15.08842228,0.0001671,53.2175,338.7347,88.2403,271.8781,0.00011381,1.524e-05,0.0,0 STARLINK-4489,1 53542U 22101R   23301.58769143  .00001524  00000-0  11381-3 0  9996,2 53542  53.2175 338.7347 0001671  88.2403 271.8781 15.08842228 66690,6917.874,95.437,540.895,538.583,0.0
53542.0,STARLINK-4489,PAYLOAD,2023-10-29 02:49:21,15.08845541,0.0001581,53.2176,336.3544,85.4695,274.6478,0.00022079,3.228e-05,0.0,0 STARLINK-4489,1 53542U 22101R   23302.11761127  .00003228  00000-0  22079-3 0  9999,2 53542  53.2176 336.3544 0001581  85.4695 274.6478 15.08845541 66084,6917.863,95.437,540.822,538.635,0.0
53542.0,STARLINK-4489,PAYLOAD,2023-10-29 09:10:53,15.08862072,0.0001708,53.2169,335.1663,80.9445,279.174,0.00098775,0.00015476,0.0,0 STARLINK-4489,1 53542U 22101R   23302.38256863  .00015476  00000-0  98775-3 0  9998,2 53542  53.2169 335.1663 0001708  80.9445 279.1740 15.08862072 66124,6917.813,95.436,540.859,538.496,0.0
53542.0,STARLINK-4489,PAYLOAD,2023-10-29 18:43:12,15.0885132,0.0001732,53.2179,333.3824,78.6664,281.4523,0.00034858,5.266e-05,0.0,0 STARLINK-4489,1 53542U 22101R   23302.78000949  .00005266  00000-0  34858-3 0  9992,2 53542  53.2179 333.3824 0001732  78.6664 281.4523 15.08851320 66183,6917.846,95.437,540.909,538.513,0.0
53542.0,STARLINK-4489,PAYLOAD,2023-10-30 02:40:08,15.08838624,0.000158,53.2171,331.8955,85.8264,274.2908,1.2301e-05,-9.2e-07,0.0,0 STARLINK-4489,1 53542U 22101R   23303.11121242 -.00000092  00000-0  12301-4 0  9993,2 53542  53.2171 331.8955 0001580  85.8264 274.2908 15.08838624 66235,6917.885,95.438,540.843,538.657,0.0
53542.0,STARLINK-4489,PAYLOAD,2023-10-30 18:34:00,15.08836438,0.0001544,53.2172,328.9204,88.8605,271.2564,0.00037035,5.61e-05,0.0,0 STARLINK-4489,1 53542U 22101R   23303.77361412  .00005610  00000-0  37035-3 0  9990,2 53542  53.2172 328.9204 0001544  88.8605 271.2564 15.08836438 67026,6917.891,95.438,540.824,538.688,0.0
53542.0,STARLINK-4489,PAYLOAD,2023-10-31 02:30:56,15.08830829,0.000197,53.2169,327.437,97.5835,262.538,0.0003278,4.931e-05,0.0,0 STARLINK-4489,1 53542U 22101R   23304.10481953  .00004931  00000-0  32780-3 0  9998,2 53542  53.2169 327.4370 0001970  97.5835 262.5380 15.08830829 66380,6917.908,95.438,541.136,538.411,0.0
53542.0,STARLINK-4489,PAYLOAD,2023-10-31 08:52:29,15.08834003,0.0001909,53.2179,326.2474,99.8513,260.2695,0.00042944,6.552e-05,0.0,0 STARLINK-4489,1 53542U 22101R   23304.36978077  .00006552  00000-0  42944-3 0  9998,2 53542  53.2179 326.2474 0001909  99.8513 260.2695 15.08834003 67117,6917.899,95.438,541.084,538.443,0.0
53542.0,STARLINK-4489,PAYLOAD,2023-10-31 18:24:48,15.08837504,0.0001803,53.2182,324.463,95.3761,264.7437,0.00063027,9.756e-05,0.0,0 STARLINK-4489,1 53542U 22101R   23304.76722319  .00009756  00000-0  63027-3 0  9992,2 53542  53.2182 324.4630 0001803  95.3761 264.7437 15.08837504 67172,6917.888,95.438,541.0,538.506,0.0
53542.0,STARLINK-4489,PAYLOAD,2023-11-01 08:43:15,15.08865646,0.0001658,53.2171,321.7846,86.7787,273.3395,0.0011312,0.00017774,0.0,0 STARLINK-4489,1 53542U 22101R   23305.36337616  .00017774  00000-0  11312-2 0  9999,2 53542  53.2171 321.7846 0001658  86.7787 273.3395 15.08865646 66579,6917.802,95.436,540.814,538.52,0.0
53542.0,STARLINK-4489,PAYLOAD,2023-11-01 18:15:34,15.088578,0.0001803,53.2181,319.9992,95.9468,264.173,0.00066502,0.00010317,0.0,0 STARLINK-4489,1 53542U 22101R   23305.76081479  .00010317  00000-0  66502-3 0  9994,2 53542  53.2181 319.9992 0001803  95.9468 264.1730 15.08857800 66632,6917.826,95.436,540.938,538.444,0.0
53542.0,STARLINK-4489,PAYLOAD,2023-11-02 10:09:25,15.08854833,0.0001713,53.2168,317.0275,97.2417,262.8769,0.00070299,0.00010922,0.0,0 STARLINK-4489,1 53542U 22101R   23306.42321393  .00010922  00000-0  70299-3 0  9990,2 53542  53.2168 317.0275 0001713  97.2417 262.8769 15.08854833 66730,6917.835,95.437,540.885,538.515,0.0
53542.0,STARLINK-4489,PAYLOAD,2023-11-02 18:06:21,15.08838446,0.0002026,53.217,315.5401,91.2794,268.843,0.00047866,7.338e-05,0.0,0 STARLINK-4489,1 53542U 22101R   23306.75442110  .00007338  00000-0  47866-3 0  9998,2 53542  53.2170 315.5401 0002026  91.2794 268.8430 15.08838446 66785,6917.885,95.438,541.152,538.349,0.0
53542.0,STARLINK-4489,PAYLOAD,2023-11-03 06:49:27,15.08835411,0.000179,53.2172,313.1608,97.6792,262.4403,0.00045159,6.905e-05,0.0,0 STARLINK-4489,1 53542U 22101R   23307.28434467  .00006905  00000-0  45159-3 0  9995,2 53542  53.2172 313.1608 0001790  97.6792 262.4403 15.08835411 66863,6917.894,95.438,540.998,538.521,0.0
53542.0,STARLINK-4489,PAYLOAD,2023-11-03 17:57:09,15.08838153,0.0001744,53.2166,311.0795,92.9714,267.1478,0.00064238,9.95e-05,0.0,0 STARLINK-4489,1 53542U 22101R   23307.74802748  .00009950  00000-0  64238-3 0  9999,2 53542  53.2166 311.0795 0001744  92.9714 267.1478 15.08838153 67626,6917.886,95.438,540.958,538.545,0.0
53542.0,STARLINK-4489,PAYLOAD,2023-11-04 09:51:00,15.08852093,0.0001817,53.217,308.1049,96.3105,263.8094,0.00068605,0.00010651,0.0,0 STARLINK-4489,1 53542U 22101R   23308.41042505  .00010651  00000-0  68605-3 0  9993,2 53542  53.2170 308.1049 0001817  96.3105 263.8094 15.08852093 67034,6917.843,95.437,540.965,538.451,0.0
53542.0,STARLINK-4489,PAYLOAD,2023-11-05 04:55:38,15.08855572,0.000189,53.2172,304.5365,98.2748,261.8458,0.00047847,7.338e-05,0.0,0 STARLINK-4489,1 53542U 22101R   23309.20530290  .00007338  00000-0  47847-3 0  9997,2 53542  53.2172 304.5365 0001890  98.2748 261.8458 15.08855572 67152,6917.833,95.437,541.005,538.39,0.0
53542.0,STARLINK-4489,PAYLOAD,2023-11-05 06:31:01,15.08858913,0.0001848,53.2181,304.2398,95.2723,264.848,0.00054428,8.389e-05,0.0,0 STARLINK-4489,1 53542U 22101R   23309.27154179  .00008389  00000-0  54428-3 0  9992,2 53542  53.2181 304.2398 0001848  95.2723 264.8480 15.08858913 67855,6917.823,95.436,540.966,538.409,0.0
53542.0,STARLINK-4489,PAYLOAD,2023-11-06 06:21:47,15.08877306,0.0001787,53.2167,299.7774,87.5479,272.5718,0.00099264,0.00015561,0.0,0 STARLINK-4489,1 53542U 22101R   23310.26513106  .00015561  00000-0  99264-3 0  9999,2 53542  53.2167 299.7774 0001787  87.5479 272.5718 15.08877306 67317,6917.766,95.435,540.868,538.395,0.0
53542.0,STARLINK-4489,PAYLOAD,2023-11-06 15:54:06,15.08848382,0.000189,53.218,297.9954,87.9415,272.1794,8.5648e-05,1.076e-05,0.0,0 STARLINK-4489,1 53542U 22101R   23310.66257591  .00001076  00000-0  85648-4 0  9994,2 53542  53.2180 297.9954 0001890  87.9415 272.1794 15.08848382 67379,6917.855,95.437,541.027,538.412,0.0
53542.0,STARLINK-4489,PAYLOAD,2023-11-07 03:01:49,15.08792012,0.0001314,53.2187,295.917,84.4864,275.6278,-0.0011772,-0.00018949,0.0,0 STARLINK-4489,1 53542U 22101R   23311.12627136 -.00018949  00000-0 -11772-2 0  9996,2 53542  53.2187 295.9170 0001314  84.4864 275.6278 15.08792012 67446,6918.027,95.441,540.801,538.983,0.0
53542.0,STARLINK-4489,PAYLOAD,2023-11-07 09:23:23,15.08799354,0.0001452,53.218,294.7226,92.4862,267.6296,-0.00044252,-7.316e-05,0.0,0 STARLINK-4489,1 53542U 22101R   23311.39123904 -.00007316  00000-0 -44252-3 0  9995,2 53542  53.2180 294.7226 0001452  92.4862 267.6296 15.08799354 67489,6918.005,95.44,540.874,538.865,0.0
53542.0,STARLINK-4489,PAYLOAD,2023-11-07 15:44:55,15.08808542,0.0001343,53.2186,293.539,106.7029,253.4111,6.3599e-05,7.24e-06,0.0,0 STARLINK-4489,1 53542U 22101R   23311.65620290  .00000724  00000-0  63599-4 0  9994,2 53542  53.2186 293.5390 0001343 106.7029 253.4111 15.08808542 67521,6917.977,95.44,540.771,538.912,0.0
53542.0,STARLINK-4489,PAYLOAD,2023-11-08 02:52:38,15.08830466,0.0001324,53.2177,291.4544,92.361,267.7534,0.00078841,0.00012279,0.0,0 STARLINK-4489,1 53542U 22101R   23312.11988519  .00012279  00000-0  78841-3 0  9990,2 53542  53.2177 291.4544 0001324  92.3610 267.7534 15.08830466 67598,6917.91,95.438,540.69,538.859,0.0
